{"spkid": "54099607", "covariance": {"epoch": "2459664.5", "labels": ["e", "q", "tp", "node", "peri", "i"], "data": [["8.025274994841604E-15", "-1.674715910210851E-14", "-7.353244457300495E-12", "-3.29395166481443E-13", "-9.051571662693744E-12", "2.413056688460671E-12"], ["-1.674715910210851E-14", "3.495325113639726E-14", "1.536550513487538E-11", "6.930029739825476E-13", "1.891989939074947E-11", "-5.062654018442194E-12"], ["-7.353244457300495E-12", "1.536550513487538E-11", "7.174351006429965E-9", "3.864044935175493E-10", "8.817117337884769E-9", "-2.64949078951378E-9"], ["-3.29395166481443E-13", "6.930029739825476E-13", "3.864044935175493E-10", "4.062054898569112E-11", "4.661261353338559E-10", "-2.11420917623349E-10"], ["-9.051571662693744E-12", "1.891989939074947E-11", "8.817117337884769E-9", "4.661261353338559E-10", "1.085595477222213E-8", "-3.240929395300635E-9"], ["2.413056688460671E-12", "-5.062654018442194E-12", "-2.64949078951378E-9", "-2.11420917623349E-10", "-3.240929395300635E-9", "1.588465010416479E-9"]], "elements": [{"label": "e", "sigma": 8.9583899194228e-08, "name": "e", "units": null, "title": "eccentricity", "value": ".5182717855771432"}, {"label": "q", "units": "au", "value": "1.00008023763995", "title": "perihelion distance", "sigma": 1.86957885996813e-07, "name": "q"}, {"label": "tp", "name": "tp", "sigma": 8.47015407559388e-05, "value": "2459179.834368263788", "title": "time of perihelion passage", "units": "TDB"}, {"name": "om", "sigma": 6.37342521613701e-06, "units": "deg", "title": "longitude of the ascending node", "value": "76.58687680403106", "label": "node"}, {"label": "peri", "title": "argument of perihelion", "value": "339.012972573613", "units": "deg", "sigma": 0.000104191913180545, "name": "w"}, {"label": "i", "name": "i", "sigma": 3.98555518142263e-05, "title": "inclination", "value": "21.37199212226464", "units": "deg"}]}, "elements": [{"name": "e", "sigma": "8.7947E-8", "title": "eccentricity", "value": ".5186116232475729", "units": null, "label": "e"}, {"label": "a", "units": "au", "title": "semi-major axis", "value": "2.077965410786771", "sigma": "9.3018E-9", "name": "a"}, {"sigma": "1.8531E-7", "name": "q", "value": "1.000308396046334", "title": "perihelion distance", "units": "au", "label": "q"}, {"label": "i", "sigma": "3.9877E-5", "name": "i", "units": "deg", "value": "21.3737965880367", "title": "inclination; angle with respect to x-y ecliptic plane"}, {"units": "deg", "value": "76.57296191527865", "title": "longitude of the ascending node", "name": "om", "sigma": "6.3482E-6", "label": "node"}, {"label": "peri", "name": "w", "sigma": ".00010424", "units": "deg", "title": "argument of perihelion", "value": "339.0955134411135"}, {"label": "M", "units": "deg", "value": "305.3974511329241", "title": "mean anomaly", "sigma": "3.0313E-5", "name": "ma"}, {"name": "tp", "sigma": "9.2983E-5", "units": "TDB", "value": "2461366.445818492902", "title": "time of perihelion passage", "label": "tp"}, {"label": "period", "value": "1094.097178556198", "title": "sidereal orbital period", "units": "d", "sigma": "7.3465E-6", "name": "per"}, {"label": "n", "name": "n", "sigma": "2.2094E-9", "units": "deg/d", "value": ".32903841363988", "title": "mean motion"}, {"label": "Q", "title": "aphelion distance", "value": "3.155622425527208", "units": "au", "name": "ad", "sigma": "1.4126E-8"}], "epoch": "2461200.5"}